NORAD_CAT_ID,OBJECT_NAME,OBJECT_TYPE,EPOCH,MEAN_MOTION,ECCENTRICITY,INCLINATION,RA_OF_ASC_NODE,ARG_OF_PERICENTER,MEAN_ANOMALY,BSTAR,MEAN_MOTION_DOT,MEAN_MOTION_DDOT,TLE_LINE0,TLE_LINE1,TLE_LINE2,SEMIMAJOR_AXIS,PERIOD,APOGEE,PERIGEE,DECAYED
53431.0,STARLINK-4548,PAYLOAD,2024-06-30 11:49:44,15.08841544,0.0001181,53.219,354.44,79.6553,280.4573,-1.3725e-05,-5.06e-06,0.0,0 STARLINK-4548,1 53431U 22097AV  24182.49287158 -.00000506  00000-0 -13725-4 0  9992,2 53431  53.2190 354.4400 0001181  79.6553 280.4573 15.08841544105133,6917.876,95.437,540.558,538.924,0.0
53431.0,STARLINK-4548,PAYLOAD,2024-06-30 15:00:30,15.08842964,0.0001303,53.218,353.8455,78.3933,281.7205,2.6781e-05,1.38e-06,0.0,0 STARLINK-4548,1 53431U 22097AV  24182.62535035  .00000138  00000-0  26781-4 0  9992,2 53431  53.2180 353.8455 0001303  78.3933 281.7205 15.08842964105637,6917.871,95.437,540.638,538.835,0.0
53431.0,STARLINK-4548,PAYLOAD,2024-06-30 18:11:16,15.08849203,0.0001347,53.2174,353.2485,82.922,277.1925,5.7213e-05,6.23e-06,0.0,0 STARLINK-4548,1 53431U 22097AV  24182.75782575  .00000623  00000-0  57213-4 0  9992,2 53431  53.2174 353.2485 0001347  82.9220 277.1925 15.08849203105175,6917.852,95.437,540.649,538.785,0.0
53431.0,STARLINK-4548,PAYLOAD,2024-07-01 11:40:31,15.0883304,0.0001325,53.2172,349.9784,75.3477,284.7662,0.00014861,2.078e-05,0.0,0 STARLINK-4548,1 53431U 22097AV  24183.48647549  .00002078  00000-0  14861-3 0  9991,2 53431  53.2172 349.9784 0001325  75.3477 284.7662 15.08833040105289,6917.902,95.438,540.683,538.85,0.0
53431.0,STARLINK-4548,PAYLOAD,2024-07-01 14:51:17,15.08833876,0.0001382,53.2162,349.3851,69.7319,290.3822,0.00015858,2.236e-05,0.0,0 STARLINK-4548,1 53431U 22097AV  24183.61895531  .00002236  00000-0  15858-3 0  9995,2 53431  53.2162 349.3851 0001382  69.7319 290.3822 15.08833876105785,6917.899,95.438,540.72,538.808,0.0
53431.0,STARLINK-4548,PAYLOAD,2024-07-01 18:02:03,15.08841377,0.0001137,53.2171,348.7895,76.2958,283.816,0.00021439,3.126e-05,0.0,0 STARLINK-4548,1 53431U 22097AV  24183.75142981  .00003126  00000-0  21439-3 0  9995,2 53431  53.2171 348.7895 0001137  76.2958 283.8160 15.08841377105323,6917.876,95.437,540.528,538.955,0.0
53431.0,STARLINK-4548,PAYLOAD,2024-07-02 03:34:22,15.08837544,0.0001174,53.2175,347.0056,71.1703,288.9416,0.000109,1.447e-05,0.0,0 STARLINK-4548,1 53431U 22097AV  24184.14887429  .00001447  00000-0  10900-3 0  9997,2 53431  53.2175 347.0056 0001174  71.1703 288.9416 15.08837544105388,6917.888,95.438,540.565,538.941,0.0
53431.0,STARLINK-4548,PAYLOAD,2024-07-02 14:42:05,15.08834437,0.0001253,53.2178,344.9261,82.929,277.1845,1.4184e-05,-6.2e-07,0.0,0 STARLINK-4548,1 53431U 22097AV  24184.61256026 -.00000062  00000-0  14184-4 0  9994,2 53431  53.2178 344.9261 0001253  82.9290 277.1845 15.08834437105939,6917.897,95.438,540.629,538.896,0.0
53431.0,STARLINK-4548,PAYLOAD,2024-07-02 17:52:51,15.08837984,0.0001078,53.2179,344.3318,98.0318,262.0796,3.9607e-05,3.43e-06,0.0,0 STARLINK-4548,1 53431U 22097AV  24184.74503668  .00000343  00000-0  39607-4 0  9993,2 53431  53.2179 344.3318 0001078  98.0318 262.0796 15.08837984105951,6917.887,95.438,540.497,539.006,0.0
53431.0,STARLINK-4548,PAYLOAD,2024-07-03 11:22:06,15.08833056,8.44e-05,53.2173,341.0613,84.0642,276.0447,1.6137e-05,-3.1e-07,0.0,0 STARLINK-4548,1 53431U 22097AV  24185.47368314 -.00000031  00000-0  16137-4 0  9999,2 53431  53.2173 341.0613 0000844  84.0642 276.0447 15.08833056105585,6917.902,95.438,540.35,539.183,0.0
53431.0,STARLINK-4548,PAYLOAD,2024-07-03 17:43:38,15.08841336,0.0001022,53.2171,339.8724,90.1507,269.9602,6.408e-05,7.32e-06,0.0,0 STARLINK-4548,1 53431U 22097AV  24185.73863781  .00000732  00000-0  64080-4 0  9993,2 53431  53.2171 339.8724 0001022  90.1507 269.9602 15.08841336105627,6917.876,95.437,540.448,539.034,0.0
53431.0,STARLINK-4548,PAYLOAD,2024-07-04 14:23:39,15.08835134,9.96e-05,53.2176,336.0056,102.9879,257.1225,0.00011555,1.551e-05,0.0,0 STARLINK-4548,1 53431U 22097AV  24186.59976187  .00001551  00000-0  11555-3 0  9991,2 53431  53.2176 336.0056 0000996 102.9879 257.1225 15.08835134106239,6917.895,95.438,540.449,539.071,0.0
53431.0,STARLINK-4548,PAYLOAD,2024-07-04 17:34:25,15.08842632,9.75e-05,53.2183,335.41,87.0421,273.0683,0.00013849,1.917e-05,0.0,0 STARLINK-4548,1 53431U 22097AV  24186.73223792  .00001917  00000-0  13849-3 0  9998,2 53431  53.2183 335.4100 0000975  87.0421 273.0683 15.08842632106251,6917.872,95.437,540.412,539.063,0.0
53431.0,STARLINK-4548,PAYLOAD,2024-07-05 03:06:44,15.08840481,0.00011,53.2179,333.6252,80.1133,279.9983,0.00015442,2.171e-05,0.0,0 STARLINK-4548,1 53431U 22097AV  24187.12967936  .00002171  00000-0  15442-3 0  9991,2 53431  53.2179 333.6252 0001100  80.1133 279.9983 15.08840481105830,6917.879,95.438,540.505,538.983,0.0
53431.0,STARLINK-4548,PAYLOAD,2024-07-05 14:14:26,15.08844219,0.000125,53.2182,331.5443,77.3172,282.796,9.3377e-05,1.199e-05,0.0,0 STARLINK-4548,1 53431U 22097AV  24187.59335931  .00001199  00000-0  93377-4 0  9999,2 53431  53.2182 331.5443 0001250  77.3172 282.7960 15.08844219106381,6917.867,95.437,540.597,538.868,0.0
53431.0,STARLINK-4548,PAYLOAD,2024-07-05 17:25:12,15.08847449,0.0001252,53.2186,330.9498,79.4545,280.6589,0.00012211,1.656e-05,0.0,0 STARLINK-4548,1 53431U 22097AV  24187.72583587  .00001656  00000-0  12211-3 0  9991,2 53431  53.2186 330.9498 0001252  79.4545 280.6589 15.08847449106402,6917.858,95.437,540.589,538.857,0.0
53431.0,STARLINK-4548,PAYLOAD,2024-07-06 09:19:04,15.08839301,0.0001249,53.2195,327.9767,97.1542,262.9593,4.4619e-05,4.22e-06,0.0,0 STARLINK-4548,1 53431U 22097AV  24188.38824259  .00000422  00000-0  44619-4 0  9996,2 53431  53.2195 327.9767 0001249  97.1542 262.9593 15.08839301106021,6917.883,95.438,540.612,538.883,0.0
53431.0,STARLINK-4548,PAYLOAD,2024-07-06 14:05:13,15.08838621,0.0001289,53.219,327.0845,89.1342,270.9798,3.7447e-05,3.08e-06,0.0,0 STARLINK-4548,1 53431U 22097AV  24188.58696281  .00000308  00000-0  37447-4 0  9994,2 53431  53.2190 327.0845 0001289  89.1342 270.9798 15.08838621106533,6917.885,95.438,540.641,538.858,0.0
53431.0,STARLINK-4548,PAYLOAD,2024-07-06 15:40:36,15.0883958,0.0001353,53.22,326.7872,88.5113,271.6034,4.46e-05,4.22e-06,0.0,0 STARLINK-4548,1 53431U 22097AV  24188.65320320  .00000422  00000-0  44600-4 0  9996,2 53431  53.2200 326.7872 0001353  88.5113 271.6034 15.08839580106549,6917.882,95.438,540.683,538.811,0.0
53431.0,STARLINK-4548,PAYLOAD,2024-07-07 13:56:00,15.0884098,0.0001333,53.219,322.625,79.9185,280.1957,4.5978e-05,4.44e-06,0.0,0 STARLINK-4548,1 53431U 22097AV  24189.58056140  .00000444  00000-0  45978-4 0  9998,2 53431  53.2190 322.6250 0001333  79.9185 280.1957 15.08840980106683,6917.877,95.437,540.665,538.82,0.0
53431.0,STARLINK-4548,PAYLOAD,2024-07-07 18:42:09,15.08851135,0.0001361,53.2195,321.7301,92.5481,267.5667,4.5128e-05,4.31e-06,0.0,0 STARLINK-4548,1 53431U 22097AV  24189.77927404  .00000431  00000-0  45128-4 0  9992,2 53431  53.2195 321.7301 0001361  92.5481 267.5667 15.08851135106238,6917.846,95.437,540.653,538.77,0.0
53431.0,STARLINK-4548,PAYLOAD,2024-07-08 12:11:24,15.08842307,0.0001364,53.2174,318.4561,107.1862,252.9279,4.8197e-05,4.79e-06,0.0,0 STARLINK-4548,1 53431U 22097AV  24190.50791917  .00000479  00000-0  48197-4 0  9994,2 53431  53.2174 318.4561 0001364 107.1862 252.9279 15.08842307106345,6917.873,95.437,540.682,538.795,0.0
53431.0,STARLINK-4548,PAYLOAD,2024-07-08 13:46:47,15.08840994,0.0001278,53.219,318.1625,100.3236,259.79,6.0251e-05,6.71e-06,0.0,0 STARLINK-4548,1 53431U 22097AV  24190.57416003  .00000671  00000-0  60251-4 0  9990,2 53431  53.2190 318.1625 0001278 100.3236 259.7900 15.08840994106835,6917.877,95.437,540.626,538.858,0.0
53431.0,STARLINK-4548,PAYLOAD,2024-07-08 15:22:10,15.08842863,0.0001254,53.2192,317.866,93.257,266.8565,8.5839e-05,1.079e-05,0.0,0 STARLINK-4548,1 53431U 22097AV  24190.64039844  .00001079  00000-0  85839-4 0  9994,2 53431  53.2192 317.8660 0001254  93.2570 266.8565 15.08842863106841,6917.872,95.437,540.604,538.869,0.0
53431.0,STARLINK-4548,PAYLOAD,2024-07-09 13:37:34,15.08841466,0.0001325,53.2186,313.7025,99.9877,260.1265,6.7675e-05,7.89e-06,0.0,0 STARLINK-4548,1 53431U 22097AV  24191.56776021  .00000789  00000-0  67675-4 0  9996,2 53431  53.2186 313.7025 0001325  99.9877 260.1265 15.08841466106501,6917.876,95.437,540.658,538.824,0.0
53431.0,STARLINK-4548,PAYLOAD,2024-07-09 15:12:57,15.0884287,0.0001298,53.2187,313.406,97.8975,262.2165,8.8054e-05,1.114e-05,0.0,0 STARLINK-4548,1 53431U 22097AV  24191.63399897  .00001114  00000-0  88054-4 0  9993,2 53431  53.2187 313.4060 0001298  97.8975 262.2165 15.08842870106998,6917.872,95.437,540.635,538.839,0.0
53431.0,STARLINK-4548,PAYLOAD,2024-07-10 08:42:13,15.08830199,0.0001413,53.2197,310.1364,101.3398,258.7753,-3.2617e-05,-8.07e-06,0.0,0 STARLINK-4548,1 53431U 22097AV  24192.36265260 -.00000807  00000-0 -32617-4 0  9994,2 53431  53.2197 310.1364 0001413 101.3398 258.7753 15.08830199106623,6917.91,95.438,540.753,538.798,0.0
53431.0,STARLINK-4548,PAYLOAD,2024-07-10 15:03:45,15.08833425,0.0001462,53.2193,308.9486,108.3952,251.7199,1.3144e-05,-7.9e-07,0.0,0 STARLINK-4548,1 53431U 22097AV  24192.62761072 -.00000079  00000-0  13144-4 0  9999,2 53431  53.2193 308.9486 0001462 108.3952 251.7199 15.08833425107146,6917.9,95.438,540.777,538.754,0.0
53431.0,STARLINK-4548,PAYLOAD,2024-07-11 13:19:08,15.08841716,0.0001659,53.2194,304.7832,107.9205,252.1968,0.00010246,1.343e-05,0.0,0 STARLINK-4548,1 53431U 22097AV  24193.55496370  .00001343  00000-0  10246-3 0  9991,2 53431  53.2194 304.7832 0001659 107.9205 252.1968 15.08841716107286,6917.875,95.437,540.888,538.592,0.0
53431.0,STARLINK-4548,PAYLOAD,2024-07-11 14:54:31,15.08849587,0.0001141,53.2178,304.4839,90.8639,269.2484,0.00013707,1.895e-05,0.0,0 STARLINK-4548,1 53431U 22097AV  24193.62119812  .00001895  00000-0  13707-3 0  9999,2 53431  53.2178 304.4839 0001141  90.8639 269.2484 15.08849587106813,6917.851,95.437,540.505,538.927,0.0
